NORAD_CAT_ID,OBJECT_NAME,OBJECT_TYPE,EPOCH,MEAN_MOTION,ECCENTRICITY,INCLINATION,RA_OF_ASC_NODE,ARG_OF_PERICENTER,MEAN_ANOMALY,BSTAR,MEAN_MOTION_DOT,MEAN_MOTION_DDOT,TLE_LINE0,TLE_LINE1,TLE_LINE2,SEMIMAJOR_AXIS,PERIOD,APOGEE,PERIGEE,DECAYED
51149.0,STARLINK-3360,PAYLOAD,2023-11-10 08:00:46,15.08847745,0.0001239,53.2157,166.333,89.1129,271.0005,0.00028912,4.317e-05,0.0,0 STARLINK-3360,1 51149U 22005AX  23314.33386765  .00004317  00000-0  28912-3 0  9993,2 51149  53.2157 166.3330 0001239  89.1129 271.0005 15.08847745101334,6917.857,95.437,540.579,538.865,0.0
51149.0,STARLINK-3360,PAYLOAD,2023-11-10 20:43:51,15.0884747,0.0001296,53.2159,163.9546,91.934,268.1801,0.00014084,1.955e-05,0.0,0 STARLINK-3360,1 51149U 22005AX  23314.86378685  .00001955  00000-0  14084-3 0  9993,2 51149  53.2159 163.9546 0001296  91.9340 268.1801 15.08847470100309,6917.858,95.437,540.619,538.826,0.0
51149.0,STARLINK-3360,PAYLOAD,2023-11-11 14:13:05,15.08841775,0.0001333,53.2156,160.6832,90.7775,269.337,9.6151e-05,1.243e-05,0.0,0 STARLINK-3360,1 51149U 22005AX  23315.59242820  .00001243  00000-0  96151-4 0  9991,2 51149  53.2156 160.6832 0001333  90.7775 269.3370 15.08841775100417,6917.875,95.437,540.662,538.818,0.0
51149.0,STARLINK-3360,PAYLOAD,2023-11-11 20:34:38,15.08843979,0.0001302,53.2155,159.4945,87.4508,272.6633,0.00011322,1.515e-05,0.0,0 STARLINK-3360,1 51149U 22005AX  23315.85738692  .00001515  00000-0  11322-3 0  9995,2 51149  53.2155 159.4945 0001302  87.4508 272.6633 15.08843979101564,6917.868,95.437,540.634,538.833,0.0
51149.0,STARLINK-3360,PAYLOAD,2023-11-12 06:06:57,15.08842156,0.0001278,53.2163,157.7102,88.2142,271.8996,5.9459e-05,6.59e-06,0.0,0 STARLINK-3360,1 51149U 22005AX  23316.25482776  .00000659  00000-0  59459-4 0  9991,2 51149  53.2163 157.7102 0001278  88.2142 271.8996 15.08842156100517,6917.874,95.437,540.623,538.855,0.0
51149.0,STARLINK-3360,PAYLOAD,2023-11-12 20:25:25,15.08845,0.0001299,53.2162,155.0339,87.9143,272.1998,8.2109e-05,1.019e-05,0.0,0 STARLINK-3360,1 51149U 22005AX  23316.85098460  .00001019  00000-0  82109-4 0  9999,2 51149  53.2162 155.0339 0001299  87.9143 272.1998 15.08845000100606,6917.865,95.437,540.629,538.831,0.0
51149.0,STARLINK-3360,PAYLOAD,2023-11-12 23:36:11,15.08846087,0.0001305,53.2162,154.4391,87.6832,272.431,8.6896e-05,1.096e-05,0.0,0 STARLINK-3360,1 51149U 22005AX  23316.98346329  .00001096  00000-0  86896-4 0  9995,2 51149  53.2162 154.4391 0001305  87.6832 272.4310 15.08846087101739,6917.862,95.437,540.63,538.824,0.0
51149.0,STARLINK-3360,PAYLOAD,2023-11-13 05:57:44,15.08844093,0.0001313,53.2165,153.2489,85.1908,274.9234,-9.9098e-06,-4.46e-06,0.0,0 STARLINK-3360,1 51149U 22005AX  23317.24842626 -.00000446  00000-0 -99098-5 0  9995,2 51149  53.2165 153.2489 0001313  85.1908 274.9234 15.08844093100661,6917.868,95.437,540.641,538.825,0.0
51149.0,STARLINK-3360,PAYLOAD,2023-11-13 20:16:12,15.08835864,0.0001334,53.2167,150.5726,82.9634,277.151,2.227e-05,6.7e-07,0.0,0 STARLINK-3360,1 51149U 22005AX  23317.84459239  .00000067  00000-0  22270-4 0  9999,2 51149  53.2167 150.5726 0001334  82.9634 277.1510 15.08835864101862,6917.893,95.438,540.681,538.835,0.0
51149.0,STARLINK-3360,PAYLOAD,2023-11-14 05:48:31,15.08839052,0.0001367,53.2167,148.7884,82.3919,277.7229,5.0064e-05,5.09e-06,0.0,0 STARLINK-3360,1 51149U 22005AX  23318.24202977  .00000509  00000-0  50064-4 0  9992,2 51149  53.2167 148.7884 0001367  82.3919 277.7229 15.08839052100812,6917.883,95.438,540.694,538.803,0.0
51149.0,STARLINK-3360,PAYLOAD,2023-11-15 21:33:08,15.08850176,0.0001358,53.2161,141.3545,85.5527,274.562,9.87e-05,1.284e-05,0.0,0 STARLINK-3360,1 51149U 22005AX  23319.89801662  .00001284  00000-0  98700-4 0  9990,2 51149  53.2161 141.3545 0001358  85.5527 274.5620 15.08850176101067,6917.849,95.437,540.654,538.775,0.0
51149.0,STARLINK-3360,PAYLOAD,2023-11-16 11:51:36,15.08848498,0.0001377,53.2162,138.678,83.9559,276.159,7.3171e-05,8.77e-06,0.0,0 STARLINK-3360,1 51149U 22005AX  23320.49417538  .00000877  00000-0  73171-4 0  9995,2 51149  53.2162 138.6780 0001377  83.9559 276.1590 15.08848498101154,6917.854,95.437,540.672,538.767,0.0
51149.0,STARLINK-3360,PAYLOAD,2023-11-16 18:13:09,15.08844226,0.0001377,53.2168,137.4882,81.9839,278.1309,3.5423e-05,2.76e-06,0.0,0 STARLINK-3360,1 51149U 22005AX  23320.75913831  .00000276  00000-0  35423-4 0  9992,2 51149  53.2168 137.4882 0001377  81.9839 278.1309 15.08844226102302,6917.867,95.437,540.685,538.78,0.0
51149.0,STARLINK-3360,PAYLOAD,2023-11-16 21:23:56,15.08836992,0.0001339,53.2164,136.8937,89.2783,270.8362,-2.1996e-05,-6.38e-06,0.0,0 STARLINK-3360,1 51149U 22005AX  23320.89162450 -.00000638  00000-0 -21996-4 0  9994,2 51149  53.2164 136.8937 0001339  89.2783 270.8362 15.08836992101217,6917.89,95.438,540.681,538.828,0.0
51149.0,STARLINK-3360,PAYLOAD,2023-11-17 11:42:25,15.08898155,0.0001317,53.2152,134.2175,77.5994,282.5145,-0.00083017,-0.00013497,0.0,0 STARLINK-3360,1 51149U 22005AX  23321.48779262 -.00013497  00000-0 -83017-3 0  9993,2 51149  53.2152 134.2175 0001317  77.5994 282.5145 15.08898155102411,6917.703,95.434,540.479,538.657,0.0
51149.0,STARLINK-3360,PAYLOAD,2023-11-17 18:03:57,15.08889114,0.0001606,53.2153,133.0279,84.3734,275.7441,-0.00076263,-0.00012421,0.0,0 STARLINK-3360,1 51149U 22005AX  23321.75274691 -.00012421  00000-0 -76263-3 0  9990,2 51149  53.2153 133.0279 0001606  84.3734 275.7441 15.08889114101342,6917.73,95.434,540.706,538.484,0.0
51149.0,STARLINK-3360,PAYLOAD,2023-11-18 05:11:38,15.08872076,0.0001094,53.2158,130.9467,85.7557,274.356,-0.00054541,-8.965e-05,0.0,0 STARLINK-3360,1 51149U 22005AX  23322.21641807 -.00008965  00000-0 -54541-3 0  9992,2 51149  53.2158 130.9467 0001094  85.7557 274.3560 15.08872076102528,6917.782,95.436,540.404,538.891,0.0
51149.0,STARLINK-3360,PAYLOAD,2023-11-18 17:54:44,15.08832637,0.000132,53.2154,128.5676,91.1051,269.0092,8.6399e-05,1.087e-05,0.0,0 STARLINK-3360,1 51149U 22005AX  23322.74634868  .00001087  00000-0  86399-4 0  9992,2 51149  53.2154 128.5676 0001320  91.1051 269.0092 15.08832637102600,6917.903,95.438,540.681,538.855,0.0
51149.0,STARLINK-3360,PAYLOAD,2023-11-18 21:05:30,15.08830656,0.0001267,53.2153,127.9727,89.0005,271.1133,6.8633e-05,8.04e-06,0.0,0 STARLINK-3360,1 51149U 22005AX  23322.87883059  .00000804  00000-0  68633-4 0  9991,2 51149  53.2153 127.9727 0001267  89.0005 271.1133 15.08830656101512,6917.909,95.438,540.65,538.897,0.0
51149.0,STARLINK-3360,PAYLOAD,2023-11-19 14:34:45,15.08839893,0.0001236,53.2172,124.7019,88.1418,271.9716,0.00013146,1.805e-05,0.0,0 STARLINK-3360,1 51149U 22005AX  23323.60746653  .00001805  00000-0  13146-3 0  9991,2 51149  53.2172 124.7019 0001236  88.1418 271.9716 15.08839893101625,6917.881,95.438,540.601,538.891,0.0
51149.0,STARLINK-3360,PAYLOAD,2023-11-19 17:45:31,15.088414,0.0001197,53.2169,124.1073,86.2854,273.8275,0.00014643,2.043e-05,0.0,0 STARLINK-3360,1 51149U 22005AX  23323.73994561  .00002043  00000-0  14643-3 0  9996,2 51149  53.2169 124.1073 0001197  86.2854 273.8275 15.08841400102757,6917.876,95.437,540.569,538.913,0.0
51149.0,STARLINK-3360,PAYLOAD,2023-11-19 20:56:17,15.08842142,0.0001213,53.2169,123.5125,86.2377,273.8753,0.00014486,2.018e-05,0.0,0 STARLINK-3360,1 51149U 22005AX  23323.87242469  .00002018  00000-0  14486-3 0  9991,2 51149  53.2169 123.5125 0001213  86.2377 273.8753 15.08842142101661,6917.874,95.437,540.578,538.9,0.0
51149.0,STARLINK-3360,PAYLOAD,2023-11-20 09:39:23,15.08836625,0.0001333,53.218,121.1334,86.755,273.3594,5.8836e-05,6.49e-06,0.0,0 STARLINK-3360,1 51149U 22005AX  23324.40235267  .00000649  00000-0  58836-4 0  9995,2 51149  53.2180 121.1334 0001333  86.7550 273.3594 15.08836625102850,6917.891,95.438,540.678,538.834,0.0
51149.0,STARLINK-3360,PAYLOAD,2023-11-20 14:25:32,15.08837876,0.0001313,53.2176,120.2413,89.1858,270.9285,6.4162e-05,7.33e-06,0.0,0 STARLINK-3360,1 51149U 22005AX  23324.60107200  .00000733  00000-0  64162-4 0  9995,2 51149  53.2176 120.2413 0001313  89.1858 270.9285 15.08837876101778,6917.887,95.438,540.66,538.844,0.0
51149.0,STARLINK-3360,PAYLOAD,2023-11-20 17:36:18,15.08862367,0.0002494,53.2175,119.6468,85.9682,274.1595,-0.0002324,-3.988e-05,0.0,0 STARLINK-3360,1 51149U 22005AX  23324.73354457 -.00003988  00000-0 -23240-3 0  9995,2 51149  53.2175 119.6468 0002494  85.9682 274.1595 15.08862367102908,6917.812,95.436,541.402,537.952,0.0
51149.0,STARLINK-3360,PAYLOAD,2023-11-21 03:08:37,15.08841157,0.0001192,53.2173,117.8634,87.0089,273.104,5.2824e-05,5.53e-06,0.0,0 STARLINK-3360,1 51149U 22005AX  23325.13098989  .00000553  00000-0  52824-4 0  9999,2 51149  53.2173 117.8634 0001192  87.0089 273.1040 15.08841157102963,6917.877,95.437,540.566,538.917,0.0
51149.0,STARLINK-3360,PAYLOAD,2023-11-21 11:05:34,15.08834485,0.0001635,53.2189,116.3772,97.7851,262.3327,-5.1042e-05,-1.1e-05,0.0,0 STARLINK-3360,1 51149U 22005AX  23325.46219934 -.00001100  00000-0 -51042-4 0  9992,2 51149  53.2189 116.3772 0001635  97.7851 262.3327 15.08834485103015,6917.897,95.438,540.893,538.631,0.0
51149.0,STARLINK-3360,PAYLOAD,2023-11-21 15:51:43,15.08832103,0.0001468,53.2201,115.4862,95.8675,264.2485,-7.0805e-05,-1.414e-05,0.0,0 STARLINK-3360,1 51149U 22005AX  23325.66092231 -.00001414  00000-0 -70805-4 0  9999,2 51149  53.2201 115.4862 0001468  95.8675 264.2485 15.08832103101937,6917.905,95.438,540.785,538.754,0.0
51149.0,STARLINK-3360,PAYLOAD,2023-11-22 09:20:57,15.08841341,0.0001236,53.2183,112.2131,93.3505,266.7629,0.00011198,1.495e-05,0.0,0 STARLINK-3360,1 51149U 22005AX  23326.38955315  .00001495  00000-0  11198-3 0  9996,2 51149  53.2183 112.2131 0001236  93.3505 266.7629 15.08841341103155,6917.876,95.437,540.596,538.886,0.0
51149.0,STARLINK-3360,PAYLOAD,2023-11-22 14:07:06,15.08850792,0.0001519,53.2203,111.3227,97.7432,262.3733,0.00012411,1.688e-05,0.0,0 STARLINK-3360,1 51149U 22005AX  23326.58826704  .00001688  00000-0  12411-3 0  9990,2 51149  53.2203 111.3227 0001519  97.7432 262.3733 15.08850792102073,6917.847,95.437,540.763,538.662,0.0
